H1 CPF 01  gfz 2021 05 09 00  6291 terrasarx 
H2 0702601  6201 31698    2021 05 09 00 59 42 2021 05 14 00 00 42   120 1 1  0 0 0
H9
10 0 59347  71982.000000  0   -4639176.828   1926618.014   4703841.718
10 0 59347  72102.000000  0   -5082749.395   2338930.062   4009079.153
10 0 59347  72222.000000  0   -5430545.207   2717278.877   3243729.015
10 0 59347  72342.000000  0   -5677129.685   3053315.459   2421252.557
10 0 59347  72462.000000  0   -5818989.067   3339356.282   1556129.778
10 0 59347  72582.000000  0   -5854584.962   3568556.893    663599.492
10 0 59347  72702.000000  0   -5784367.311   3735069.602   -240616.966
10 0 59347  72822.000000  0   -5610747.851   3834181.845  -1140600.871
10 0 59347  72942.000000  0   -5338034.501   3862432.844  -2020525.472
10 0 59347  73062.000000  0   -4972326.230   3817703.809  -2864943.872
10 0 59347  73182.000000  0   -4521372.445   3699279.949  -3659065.842
10 0 59347  73302.000000  0   -3994401.431   3507882.992  -4389018.681
10 0 59347  73422.000000  0   -3401924.081   3245675.035  -5042086.934
10 0 59347  73542.000000  0   -2755517.222   2916233.469  -5606926.925
10 0 59347  73662.000000  0   -2067593.892   2524499.462  -6073754.789
10 0 59347  73782.000000  0   -1351161.761   2076699.881  -6434506.117
10 0 59347  73902.000000  0    -619577.088   1580244.793  -6682962.777
10 0 59347  74022.000000  0     113700.901   1043603.993  -6814849.432
10 0 59347  74142.000000  0     835351.581    476163.817  -6827898.829
10 0 59347  74262.000000  0    1532429.607   -111933.642  -6721888.289
10 0 59347  74382.000000  0    2192592.306   -709968.119  -6498641.807
10 0 59347  74502.000000  0    2804312.983  -1306831.310  -6162002.104
10 0 59347  74622.000000  0    3357079.785  -1891227.959  -5717771.292
10 0 59347  74742.000000  0    3841576.353  -2451884.872  -5173622.044
10 0 59347  74862.000000  0    4249843.286  -2977767.395  -4538976.354
10 0 59347  74982.000000  0    4575413.318  -3458296.720  -3824852.101
10 0 59347  75102.000000  0    4813420.110  -3883563.389  -3043681.711
10 0 59347  75222.000000  0    4960678.865  -4244534.349  -2209102.801
10 0 59347  75342.000000  0    5015734.633  -4533247.435  -1335722.978
10 0 59347  75462.000000  0    4978877.093  -4742989.272   -438863.468
10 0 59347  75582.000000  0    4852119.357  -4868451.236    465714.478
10 0 59347  75702.000000  0    4639141.708  -4905858.314   1362093.951
10 0 59347  75822.000000  0    4345201.348  -4853067.161   2234491.728
10 0 59347  75942.000000  0    3977009.874  -4709631.352   3067544.360
10 0 59347  76062.000000  0    3542583.116  -4476832.487   3846586.251
10 0 59347  76182.000000  0    3051065.387  -4157675.679   4557913.400
10 0 59347  76302.000000  0    2512534.167  -3756849.621   5189026.898
10 0 59347  76422.000000  0    1937790.242  -3280653.669   5728851.915
10 0 59347  76542.000000  0    1338137.358  -2736892.991   6167929.546
10 0 59347  76662.000000  0     725157.077  -2134744.763   6498576.606
10 0 59347  76782.000000  0     110483.477  -1484599.366   6715013.674
10 0 59347  76902.000000  0    -494417.484   -797878.733   6813460.294
10 0 59347  77022.000000  0   -1078460.720    -86834.025   6792197.012
10 0 59347  77142.000000  0   -1631144.315    635672.766   6651593.349
10 0 59347  77262.000000  0   -2142737.768   1356400.840   6394101.714
10 0 59347  77382.000000  0   -2604453.589   2061972.232   6024217.360
10 0 59347  77502.000000  0   -3008599.368   2739119.814   5548405.079
10 0 59347  77622.000000  0   -3348708.671   3374938.330   4974992.832
10 0 59347  77742.000000  0   -3619648.558   3957133.233   4314032.063
10 0 59347  77862.000000  0   -3817700.636   4474263.483   3577126.495
10 0 59347  77982.000000  0   -3940613.848   4915972.678   2777230.895
10 0 59347  78102.000000  0   -3987627.618   5273202.756   1928422.172
10 0 59347  78222.000000  0   -3959463.665   5538384.099   1045648.126
10 0 59347  78342.000000  0   -3858288.419   5705598.659    144459.283
10 0 59347  78462.000000  0   -3687646.444   5770712.609   -759273.271
10 0 59347  78582.000000  0   -3452364.026   5731472.002  -1649648.123
10 0 59347  78702.000000  0   -3158426.607   5587559.108  -2511023.277
10 0 59347  78822.000000  0   -2812832.318   5340609.395  -3328297.018
10 0 59347  78942.000000  0   -2423429.388   4994189.432  -4087175.804
10 0 59347  79062.000000  0   -1998739.596   4553736.335  -4774423.758
10 0 59347  79182.000000  0   -1547772.681   4026462.143  -5378087.545
10 0 59347  79302.000000  0   -1079837.197   3421227.519  -5887696.475
10 0 59347  79422.000000  0    -604350.111   2748384.970  -6294435.498
10 0 59347  79542.000000  0    -130649.481   2019595.464  -6591286.216
10 0 59347  79662.000000  0     332184.791   1247624.612  -6773136.330
10 0 59347  79782.000000  0     775500.217    446120.495  -6836859.171
10 0 59347  79902.000000  0    1191229.891   -370623.629  -6781361.796
10 0 59347  80022.000000  0    1572035.382  -1187919.321  -6607600.425
10 0 59347  80142.000000  0    1911432.735  -1990939.917  -6318564.903
10 0 59347  80262.000000  0    2203901.526  -2764982.512  -5919233.378
10 0 59347  80382.000000  0    2444974.614  -3495732.905  -5416497.147
10 0 59347  80502.000000  0    2631308.103  -4169531.311  -4819052.692
10 0 59347  80622.000000  0    2760728.268  -4773629.016  -4137260.227
10 0 59347  80742.000000  0    2832255.356  -5296433.069  -3382975.036
10 0 59347  80862.000000  0    2846103.832  -5727737.406  -2569350.483
10 0 59347  80982.000000  0    2803658.502  -6058931.622  -1710613.150
10 0 59347  81102.000000  0    2707427.186  -6283183.131   -821815.207
10 0 59347  81222.000000  0    2560968.445  -6395586.895     81433.613
10 0 59347  81342.000000  0    2368796.758  -6393276.714    983246.541
10 0 59347  81462.000000  0    2136268.532  -6275497.644   1867746.874
10 0 59347  81582.000000  0    1869450.150  -6043635.105   2719357.982
10 0 59347  81702.000000  0    1574972.099  -5701199.350   3523085.597
10 0 59347  81822.000000  0    1259873.283  -5253767.914   4264787.471
10 0 59347  81942.000000  0     931439.552  -4708887.888   4931425.040
10 0 59347  82062.000000  0     597040.365  -4075941.058   5511294.237
10 0 59347  82182.000000  0     263966.718  -3365972.082   5994229.749
10 0 59347  82302.000000  0     -60724.236  -2591485.933   6371777.648
10 0 59347  82422.000000  0    -370355.739  -1766221.759   6637336.105
10 0 59347  82542.000000  0    -658765.917   -904906.527   6786264.903
10 0 59347  82662.000000  0    -920428.588    -22990.673   6815962.758
10 0 59347  82782.000000  0   -1150558.224    863629.787   6725910.168
10 0 59347  82902.000000  0   -1345197.013   1738899.346   6517677.582
10 0 59347  83022.000000  0   -1501282.849   2586892.945   6194899.812
10 0 59347  83142.000000  0   -1616697.822   3392105.951   5763216.582
10 0 59347  83262.000000  0   -1690295.888   4139739.368   5230179.234
10 0 59347  83382.000000  0   -1721909.284   4815976.194   4605125.708
10 0 59347  83502.000000  0   -1712334.194   5408244.170   3899022.188
10 0 59347  83622.000000  0   -1663294.597   5905458.082   3124274.093
10 0 59347  83742.000000  0   -1577386.976   6298236.373   2294509.095
10 0 59347  83862.000000  0   -1458005.179   6579087.855   1424335.217
10 0 59347  83982.000000  0   -1309246.243   6742562.402    529078.330
10 0 59347  84102.000000  0   -1135801.074   6785361.552   -375494.382
10 0 59347  84222.000000  0    -942832.525   6706408.186  -1273461.067
10 0 59347  84342.000000  0    -735842.804   6506868.680  -2149037.017
10 0 59347  84462.000000  0    -520535.707   6190127.207  -2986859.695
10 0 59347  84582.000000  0    -302677.102   5761717.667  -3772261.364
10 0 59347  84702.000000  0     -87956.168   5229215.819  -4491526.443
10 0 59347  84822.000000  0     118148.946   4602093.014  -5132128.604
10 0 59347  84942.000000  0     310498.215   3891536.370  -5682942.941
10 0 59347  85062.000000  0     484406.528   3110239.167  -6134430.760
10 0 59347  85182.000000  0     635747.240   2272166.604  -6478793.715
10 0 59347  85302.000000  0     761041.280   1392303.482  -6710096.660
10 0 59347  85422.000000  0     857530.428    486387.580  -6824359.969
10 0 59347  85542.000000  0     923233.350   -429367.849  -6819620.763
10 0 59347  85662.000000  0     956983.838  -1338558.736  -6695962.177
10 0 59347  85782.000000  0     958450.715  -2224875.998  -6455510.334
10 0 59347  85902.000000  0     928139.968  -3072389.721  -6102402.878
10 0 59347  86022.000000  0     867378.217  -3865832.159  -5642727.500
10 0 59347  86142.000000  0     778277.250  -4590872.331  -5084425.995
10 0 59347  86262.000000  0     663681.752  -5234376.546  -4437168.254
10 0 59347  86382.000000  0     527099.365  -5784652.990  -3712196.236
99
